{
  "type": "FeatureCollection",
  "features": [
    {
      "type": "Feature",
      "properties": {
        "norad_id": 66950,
        "name": "STARLINK-36111",
        "group": "last-30-days",
        "lat": -50.72900434010602,
        "lon": -72.85153159387139,
        "alt_km": 294.9191236627903,
        "timestamp": "2025-12-14T16:47:39.439812+00:00",
        "meta_object_name": "STARLINK-36111",
        "meta_object_id": "2025-286AB",
        "meta_epoch": "2025-12-13T20:00:03.000384",
        "meta_mean_motion": 15.96872095,
        "meta_eccentricity": 7.612e-05,
        "meta_inclination": 53.1566,
        "meta_ra_of_asc_node": 45.0868,
        "meta_arg_of_pericenter": 66.428,
        "meta_mean_anomaly": 248.9767,
        "meta_ephemeris_type": 0,
        "meta_classification_type": "U",
        "meta_norad_cat_id": 66950,
        "meta_element_set_no": 999,
        "meta_rev_at_epoch": 216,
        "meta_bstar": -0.0032085965,
        "meta_mean_motion_dot": -0.0141015,
        "meta_mean_motion_ddot": 0.00060019636,
        "tle_line1": "1 66950U 25286AB  25347.83336806 -.01410150  60020-3 -32086-2 0  9993",
        "tle_line2": "2 66950  53.1566  45.0868 0000761  66.4280 248.9767 15.96872095  2169"
      },
      "geometry": {
        "type": "Point",
        "coordinates": [
          -72.85153159387139,
          -50.72900434010602
        ]
      }
    },
    {
      "type": "Feature",
      "properties": {
        "norad_id": 66951,
        "name": "STARLINK-35999",
        "group": "last-30-days",
        "lat": -51.27011871739317,
        "lon": -70.13767406971259,
        "alt_km": 294.651174765595,
        "timestamp": "2025-12-14T16:47:39.439822+00:00",
        "meta_object_name": "STARLINK-35999",
        "meta_object_id": "2025-286AC",
        "meta_epoch": "2025-12-13T20:00:03.000384",
        "meta_mean_motion": 15.96954361,
        "meta_eccentricity": 6.849e-05,
        "meta_inclination": 53.1568,
        "meta_ra_of_asc_node": 45.0835,
        "meta_arg_of_pericenter": 70.878,
        "meta_mean_anomaly": 246.065,
        "meta_ephemeris_type": 0,
        "meta_classification_type": "U",
        "meta_norad_cat_id": 66951,
        "meta_element_set_no": 999,
        "meta_rev_at_epoch": 216,
        "meta_bstar": -0.003193034,
        "meta_mean_motion_dot": -0.01409673,
        "meta_mean_motion_ddot": 0.00060033706,
        "tle_line1": "1 66951U 25286AC  25347.83336806 -.01409673  60034-3 -31930-2 0  9994",
        "tle_line2": "2 66951  53.1568  45.0835 0000684  70.8780 246.0650 15.96954361  2161"
      },
      "geometry": {
        "type": "Point",
        "coordinates": [
          -70.13767406971259,
          -51.27011871739317
        ]
      }
    },
    {
      "type": "Feature",
      "properties": {
        "norad_id": 66952,
        "name": "STARLINK-36122",
        "group": "last-30-days",
        "lat": -50.18163244535953,
        "lon": -75.2713122668539,
        "alt_km": 295.06085998417984,
        "timestamp": "2025-12-14T16:47:39.439834+00:00",
        "meta_object_name": "STARLINK-36122",
        "meta_object_id": "2025-286AD",
        "meta_epoch": "2025-12-13T20:00:03.000384",
        "meta_mean_motion": 15.96797343,
        "meta_eccentricity": 7.092e-05,
        "meta_inclination": 53.1568,
        "meta_ra_of_asc_node": 45.0898,
        "meta_arg_of_pericenter": 66.0989,
        "meta_mean_anomaly": 247.8888,
        "meta_ephemeris_type": 0,
        "meta_classification_type": "U",
        "meta_norad_cat_id": 66952,
        "meta_element_set_no": 999,
        "meta_rev_at_epoch": 216,
        "meta_bstar": -0.0032124476,
        "meta_mean_motion_dot": -0.01406101,
        "meta_mean_motion_ddot": 0.00059658924,
        "tle_line1": "1 66952U 25286AD  25347.83336806 -.01406101  59659-3 -32124-2 0  9995",
        "tle_line2": "2 66952  53.1568  45.0898 0000709  66.0989 247.8888 15.96797343  2164"
      },
      "geometry": {
        "type": "Point",
        "coordinates": [
          -75.2713122668539,
          -50.18163244535953
        ]
      }
    },
    {
      "type": "Feature",
      "properties": {
        "norad_id": 66953,
        "name": "HULIANWANG DIGUI-114",
        "group": "last-30-days",
        "lat": 56.59965617399679,
        "lon": 160.1107931724178,
        "alt_km": 997.403158117565,
        "timestamp": "2025-12-14T16:47:39.439846+00:00",
        "meta_object_name": "HULIANWANG DIGUI-114",
        "meta_object_id": "2025-287A",
        "meta_epoch": "2025-12-11T05:43:48.442368",
        "meta_mean_motion": 13.68688345,
        "meta_eccentricity": 0.00085506,
        "meta_inclination": 86.4966,
        "meta_ra_of_asc_node": 346.7027,
        "meta_arg_of_pericenter": 209.4482,
        "meta_mean_anomaly": 150.6197,
        "meta_ephemeris_type": 0,
        "meta_classification_type": "U",
        "meta_norad_cat_id": 66953,
        "meta_element_set_no": 999,
        "meta_rev_at_epoch": 32,
        "meta_bstar": 1.3583638e-05,
        "meta_mean_motion_dot": 2.8e-07,
        "meta_mean_motion_ddot": 0,
        "tle_line1": "1 66953U 25287A   25345.23875512  .00000028  00000+0  13584-4 0  9999",
        "tle_line2": "2 66953  86.4966 346.7027 0008550 209.4482 150.6197 13.68688345   322"
      },
      "geometry": {
        "type": "Point",
        "coordinates": [
          160.1107931724178,
          56.59965617399679
        ]
      }
    },
    {
      "type": "Feature",
      "properties": {
        "norad_id": 66954,
        "name": "HULIANWANG DIGUI-115",
        "group": "last-30-days",
        "lat": 54.522277729643854,
        "lon": 160.51429377535374,
        "alt_km": 996.9004643048529,
        "timestamp": "2025-12-14T16:47:39.439859+00:00",
        "meta_object_name": "HULIANWANG DIGUI-115",
        "meta_object_id": "2025-287B",
        "meta_epoch": "2025-12-14T00:23:38.526432",
        "meta_mean_motion": 13.68791673,
        "meta_eccentricity": 0.00086518,
        "meta_inclination": 86.4972,
        "meta_ra_of_asc_node": 345.6933,
        "meta_arg_of_pericenter": 199.978,
        "meta_mean_anomaly": 160.1042,
        "meta_ephemeris_type": 0,
        "meta_classification_type": "U",
        "meta_norad_cat_id": 66954,
        "meta_element_set_no": 999,
        "meta_rev_at_epoch": 70,
        "meta_bstar": 2.67499e-05,
        "meta_mean_motion_dot": 4e-07,
        "meta_mean_motion_ddot": 0,
        "tle_line1": "1 66954U 25287B   25348.01641813  .00000040  00000+0  26750-4 0  9997",
        "tle_line2": "2 66954  86.4972 345.6933 0008651 199.9780 160.1042 13.68791673   706"
      },
      "geometry": {
        "type": "Point",
        "coordinates": [
          160.51429377535374,
          54.522277729643854
        ]
      }
    },
    {
      "type": "Feature",
      "properties": {
        "norad_id": 66955,
        "name": "HULIANWANG DIGUI-116",
        "group": "last-30-days",
        "lat": 52.19545666217772,
        "lon": 160.89794482353406,
        "alt_km": 996.1199575116116,
        "timestamp": "2025-12-14T16:47:39.439869+00:00",
        "meta_object_name": "HULIANWANG DIGUI-116",
        "meta_object_id": "2025-287C",
        "meta_epoch": "2025-12-14T00:23:02.759424",
        "meta_mean_motion": 13.68903152,
        "meta_eccentricity": 0.00081009,
        "meta_inclination": 86.4907,
        "meta_ra_of_asc_node": 345.6842,
        "meta_arg_of_pericenter": 194.0861,
        "meta_mean_anomaly": 166.0073,
        "meta_ephemeris_type": 0,
        "meta_classification_type": "U",
        "meta_norad_cat_id": 66955,
        "meta_element_set_no": 999,
        "meta_rev_at_epoch": 70,
        "meta_bstar": 2.6850904e-05,
        "meta_mean_motion_dot": 4e-07,
        "meta_mean_motion_ddot": 0,
        "tle_line1": "1 66955U 25287C   25348.01600416  .00000040  00000+0  26851-4 0  9994",
        "tle_line2": "2 66955  86.4907 345.6842 0008100 194.0861 166.0073 13.68903152   705"
      },
      "geometry": {
        "type": "Point",
        "coordinates": [
          160.89794482353406,
          52.19545666217772
        ]
      }
    },
    {
      "type": "Feature",
      "properties": {
        "norad_id": 66956,
        "name": "HULIANWANG DIGUI-117",
        "group": "last-30-days",
        "lat": 49.81793205518035,
        "lon": 161.28544711722606,
        "alt_km": 995.6529923419603,
        "timestamp": "2025-12-14T16:47:39.439879+00:00",
        "meta_object_name": "HULIANWANG DIGUI-117",
        "meta_object_id": "2025-287D",
        "meta_epoch": "2025-12-11T19:45:00.614592",
        "meta_mean_motion": 13.6901764,
        "meta_eccentricity": 0.00072845,
        "meta_inclination": 86.4968,
        "meta_ra_of_asc_node": 346.4938,
        "meta_arg_of_pericenter": 195.1574,
        "meta_mean_anomaly": 164.9368,
        "meta_ephemeris_type": 0,
        "meta_classification_type": "U",
        "meta_norad_cat_id": 66956,
        "meta_element_set_no": 999,
        "meta_rev_at_epoch": 40,
        "meta_bstar": 1.8810541e-05,
        "meta_mean_motion_dot": 3.3e-07,
        "meta_mean_motion_ddot": 0,
        "tle_line1": "1 66956U 25287D   25345.82292378  .00000033  00000+0  18811-4 0  9994",
        "tle_line2": "2 66956  86.4968 346.4938 0007284 195.1574 164.9368 13.69017640   403"
      },
      "geometry": {
        "type": "Point",
        "coordinates": [
          161.28544711722606,
          49.81793205518035
        ]
      }
    }
  ]
}